ONEWEB-0113             
1 48050U 21025J   21231.58334491  .00041121  00000-0  11207+0 0  9992
2 48050  87.8920 310.5142 0001805  89.7776 196.3042 13.13468629  3288
ONEWEB-0112             
1 48051U 21025K   21231.58334491  .00040622  00000-0  11074+0 0  9990
2 48051  87.8909 310.5874 0002128  98.3480 247.5084 13.13453276  3282
ONEWEB-0156             
1 48052U 21025L   21231.58334491  .00040969  00000-0  11170+0 0  9992
2 48052  87.8884 310.5115 0002200  99.6739 196.4054 13.13441516  3334
ONEWEB-0161             
1 48053U 21025M   21231.58334491  .00041818  00000-0  11397+0 0  9998
2 48053  87.8888 310.5973 0001984  97.4422 328.1277 13.13463512  3290
ONEWEB-0158             
1 48054U 21025N   21231.58334491  .00042122  00000-0  11479+0 0  9999
2 48054  87.8886 310.5018 0002087  86.3733 148.7685 13.13466105  3285
ONEWEB-0157             
1 48055U 21025P   21231.58334491  .00042809  00000-0  11671+0 0  9996
2 48055  87.8905 310.5500 0001874 116.0790   9.9565 13.13433079  3291
ONEWEB-0162             
1 48056U 21025Q   21231.58334491  .00040865  00000-0  11150+0 0  9999
2 48056  87.8931 310.4685 0002592  99.1182 205.5557 13.13391677  3290
ONEWEB-0155             
1 48057U 21025R   21231.58334491  .00042732  00000-0  11649+0 0  9998
2 48057  87.8868 310.5912 0001920 102.7403  93.1760 13.13439370  3284
ONEWEB-0149             
1 48058U 21025S   21231.58334491  .00042572  00000-0  11599+0 0  9995
2 48058  87.8834 310.5352 0002729 108.9540 356.0333 13.13477774  3292
ONEWEB-0148             
1 48059U 21025T   21231.58334491  .00041326  00000-0  11265+0 0  9992
2 48059  87.8881 310.4972 0002616 121.0916 154.6173 13.13452657  3286
ONEWEB-0160             
1 48060U 21025U   21231.58334491  .00042876  00000-0  11707+0 0  9996
2 48060  87.8850 310.4033 0002779  86.7744 102.6430 13.13328902 22182
ONEWEB-0163             
1 48061U 21025V   21231.58334491  .00041478  00000-0  11314+0 0  9998
2 48061  87.8887 310.5330 0001419 126.3719 139.8722 13.13407488  3291
ONEWEB-0159             
1 48062U 21025W   21231.58334491  .00040663  00000-0  11086+0 0  9990
2 48062  87.8881 310.4891 0002079 116.4870 219.3592 13.13447225  3289
ONEWEB-0164             
1 48063U 21025X   21231.58334491  .00041470  00000-0  11303+0 0  9990
2 48063  87.8885 310.5009 0001382  80.5899 325.2561 13.13461572  3299
ONEWEB-0167             
1 48064U 21025Y   21231.58334491  .00109948  00000-0  29763+0 0  9995
2 48064  87.8927 310.5060 0001646 106.5147 148.0141 13.13432209  3292
ONEWEB-0166             
1 48065U 21025Z   21231.58334491  .00042936  00000-0  11703+0 0  9994
2 48065  87.8896 310.5999 0002326 107.3437  48.4777 13.13447143  3297
ONEWEB-0151             
1 48066U 21025AA  21231.58334491  .00042958  00000-0  11708+0 0  9994
2 48066  87.8901 310.5333 0001314  88.0948  57.6358 13.13453794  3291
ONEWEB-0170             
1 48067U 21025AB  21231.58334491  .00042772  00000-0  11658+0 0  9993
2 48067  87.8937 310.5155 0001149  51.3004  64.6049 13.13451890  3295
ONEWEB-0168             
1 48068U 21025AC  21231.58334491  .00043100  00000-0  11747+0 0  9999
2 48068  87.8899 310.1622 0002045  98.5031  77.2774 13.13450689  3309
ONEWEB-0173             
1 48069U 21025AD  21231.58334491  .00000013  00000-0  00000-0 0  9997
2 48069  87.9035 310.3405 0002070 157.1178  65.9110 13.18155943  3315
ONEWEB-0171             
1 48070U 21025AE  21231.58334491  .00149625  00000-0  40352+0 0  9995
2 48070  87.8875 310.5387 0002455 107.4735 307.5974 13.13394633  3299
ONEWEB-0172             
1 48071U 21025AF  21231.58334491  .00053846  00000-0  32754-1 0  9994
2 48071  88.3111 308.4869 0009106 108.0826 177.5446 14.05782746  3442
ONEWEB-0174             
1 48072U 21025AG  21231.58334491  .00042401  00000-0  11539+0 0  9996
2 48072  87.8898 310.2773 0001917 124.2862 101.3869 13.13558729  3316
ONEWEB-0175             
1 48073U 21025AH  21231.58334491  .00042408  00000-0  11559+0 0  9996
2 48073  87.8920 310.6069 0001526  77.1724  18.6466 13.13452123  3295
ONEWEB-0177             
1 48074U 21025AJ  21231.58334491  .00036865  00000-0  10054+0 0  9996
2 48074  87.8858 310.5566 0001237 133.7450 262.3337 13.13450356  3292
ONEWEB-0178             
1 48075U 21025AK  21231.58334491  .00040695  00000-0  11090+0 0  9994
2 48075  87.8861 310.5979 0001867 101.5347 213.7051 13.13476245  3289
ONEWEB-0108             
1 48076U 21025AL  21231.58334491  .00042893  00000-0  11688+0 0  9990
2 48076  87.8897 310.5482 0002944  98.2616  37.2615 13.13466022  3306
ONEWEB-0169             
1 48077U 21025AM  21231.58334491  .00040745  00000-0  11107+0 0  9991
2 48077  87.8900 310.4721 0002691 102.8636 252.9852 13.13454473  3294
ONEWEB-0176             
1 48210U 21031A   21231.58334491  .00041833  00000-0  91488-1 0  9998
2 48210  87.9508 280.0076 0002354 252.8141  78.6911 13.28301525 18016
ONEWEB-0184             
1 48211U 21031B   21231.58334491  .00033124  00000-0  72055-1 0  9992
2 48211  87.9518 280.0533 0007537 237.6657 183.4931 13.28707001  3354
ONEWEB-0179             
1 48212U 21031C   21231.58334491  .00093223  00000-0  20038+0 0  9991
2 48212  87.9479 280.0628 0000899  89.3379 243.4025 13.29079443  3357
ONEWEB-0180             
1 48213U 21031D   21231.58334491  .00034186  00000-0  74740-1 0  9996
2 48213  87.9500 280.0563 0002022 113.0745 124.6936 13.28376084  3354
ONEWEB-0218             
1 48214U 21031E   21231.58334491  .00040056  00000-0  87016-1 0  9990
2 48214  87.9489 280.0660 0003650 219.0405 146.2311 13.28757631  3377
ONEWEB-0209             
1 48215U 21031F   21231.58334491  .00033172  00000-0  71483-1 0  9993
2 48215  87.9513 280.0500 0007394 237.6265 172.3810 13.29332209  3373
ONEWEB-0198             
1 48216U 21031G   21231.58334491  .00000014  00000-0  00000+0 0  9998
2 48216  87.9648 280.0109 0002518 211.2124 315.6137 13.44479413 16872
ONEWEB-0189             
1 48217U 21031H   21231.58334491  .00033422  00000-0  72848-1 0  9999
2 48217  87.9501 280.0671 0000577 112.6959   5.3717 13.28584015  3340
ONEWEB-0196             
1 48218U 21031J   21231.58334491  .00037737  00000-0  82203-1 0  9999
2 48218  87.9519 280.0067 0003044 244.3465  37.6455 13.28592502  3411
ONEWEB-0183             
1 48219U 21031K   21231.58334491  .00034060  00000-0  74229-1 0  9995
2 48219  87.9501 280.0083 0004325 243.0578 353.2385 13.28584872  3369
ONEWEB-0185             
1 48220U 21031L   21231.58334491  .00034017  00000-0  74386-1 0  9993
2 48220  87.9503 280.0590 0000831 144.0567 176.3585 13.28363091  3344
ONEWEB-0187             
1 48221U 21031M   21231.58334491  .00033193  00000-0  71787-1 0  9990
2 48221  87.9481 280.0643 0001479  85.6011 350.7072 13.29101176  3346
ONEWEB-0192             
1 48222U 21031N   21231.58334491  .00033230  00000-0  72263-1 0  9993
2 48222  87.9497 280.0426 0000583  76.4223  14.6236 13.28736804  3340
ONEWEB-0219             
1 48223U 21031P   21231.58334491  .00033510  00000-0  71707-1 0  9997
2 48223  87.9456 280.0482 0008430 217.5938 273.5885 13.29790895  3367
ONEWEB-0202             
1 48224U 21031Q   21231.58334491  .00000013  00000-0  00000+0 0  9996
2 48224  88.0224 280.0524 0008342 239.6848 238.4722 13.35350320 16789
ONEWEB-0204             
1 48225U 21031R   21231.58334491 -.00265303  00000-0 -59574+0 0  9994
2 48225  87.9499 280.0703 0002440  86.5810 305.6312 13.28847772 16698
ONEWEB-0205             
1 48226U 21031S   21231.58334491  .00034172  00000-0  73484-1 0  9999
2 48226  87.9473 280.0481 0005751 242.1835 357.8671 13.29467894 16690
ONEWEB-0206             
1 48227U 21031T   21231.58334491  .00033475  00000-0  71848-1 0  9997
2 48227  87.9491 280.0498 0002179 137.2388 233.7931 13.29604465  3354
ONEWEB-0182             
1 48228U 21031U   21231.58334491  .00033977  00000-0  69907-1 0  9998
2 48228  87.9410 280.0557 0004865 247.1060 295.1407 13.32390539  3374
ONEWEB-0186             
1 48229U 21031V   21231.58334491  .00033974  00000-0  73484-1 0  9991
2 48229  87.9480 280.0625 0006707 222.6261 343.0288 13.29081831  3363
ONEWEB-0181             
1 48230U 21031W   21231.58334491  .00037007  00000-0  80479-1 0  9996
2 48230  87.9496 279.9840 0005352 244.9054 163.8044 13.28705203  3419
ONEWEB-0188             
1 48231U 21031X   21231.58334491  .00033219  00000-0  72628-1 0  9995
2 48231  87.9523 280.0726 0000791  83.9620   5.1785 13.28381348  3329
ONEWEB-0220             
1 48232U 21031Y   21231.58334491  .00000013  00000-0  00000-0 0  9996
2 48232  87.9467 280.0443 0008007 216.8901 351.6694 13.31226819  3389
ONEWEB-0165             
1 48233U 21031Z   21231.58334491  .00073025  00000-0  15835+0 0  9991
2 48233  87.9486 280.0690 0006561 249.2657 264.9310 13.28637304  3366
ONEWEB-0199             
1 48234U 21031AA  21231.58334491  .00033359  00000-0  72908-1 0  9994
2 48234  87.9505 280.0696 0001120 123.5353 347.6580 13.28404152  3358
ONEWEB-0203             
1 48235U 21031AB  21231.58334491  .00034006  00000-0  73501-1 0  9995
2 48235  87.9466 279.9634 0009010 248.2726 351.4427 13.29122717  3379
ONEWEB-0197             
1 48236U 21031AC  21231.58334491 -.00072087  00000-0 -15939+0 0  9998
2 48236  87.9503 280.0666 0001036  93.1798  89.9058 13.28453340  3333
ONEWEB-0194             
1 48237U 21031AD  21231.58334491  .00033699  00000-0  72981-1 0  9995
2 48237  87.9490 280.0651 0005690 244.9326 270.2763 13.29002402  3378
ONEWEB-0193             
1 48238U 21031AE  21231.58334491  .00031516  00000-0  68491-1 0  9993
2 48238  87.9495 280.0704 0002542 197.9131 315.8667 13.28791436  3377
ONEWEB-0191             
1 48239U 21031AF  21231.58334491  .00033282  00000-0  72596-1 0  9997
2 48239  87.9503 280.0740 0000852 265.0246 194.5301 13.28535397  3328
ONEWEB-0195             
1 48240U 21031AG  21231.58334491  .00033857  00000-0  73997-1 0  9993
2 48240  87.9497 280.0579 0000754 162.1894  17.4159 13.28400172  3336
